[{"OBJECT_NAME":"IRIDIUM 128","OBJECT_ID":"2017-039J","EPOCH":"2026-03-09T22:17:06.660384","MEAN_MOTION":14.3421733,"ECCENTRICITY":0.00019867,"INCLINATION":86.3911,"RA_OF_ASC_NODE":66.6445,"ARG_OF_PERICENTER":95.0823,"MEAN_ANOMALY":265.0599,"EPHEMERIS_TYPE":0,"CLASSIFICATION_TYPE":"U","NORAD_CAT_ID":42811,"ELEMENT_SET_NO":999,"REV_AT_EPOCH":45575,"BSTAR":-1.154861e-5,"MEAN_MOTION_DOT":-1.3e-7,"MEAN_MOTION_DDOT":0},{"OBJECT_NAME":"HEALTHSAT 1","OBJECT_ID":"1993-061E","EPOCH":"2026-03-09T17:44:06.863712","MEAN_MOTION":14.32505034,"ECCENTRICITY":0.00080688,"INCLINATION":98.6505,"RA_OF_ASC_NODE":137.4411,"ARG_OF_PERICENTER":326.1753,"MEAN_ANOMALY":147.9059,"EPHEMERIS_TYPE":0,"CLASSIFICATION_TYPE":"U","NORAD_CAT_ID":22827,"ELEMENT_SET_NO":999,"REV_AT_EPOCH":69385,"BSTAR":9.7207774e-5,"MEAN_MOTION_DOT":2.19e-6,"MEAN_MOTION_DDOT":0}]
